{"type":"FeatureCollection","features":[{"type":"Feature","geometry":{"type":"Polygon","coordinates":[[[-105.55,39.55],[-105.5,39.55],[-105.5,39.599999999999994],[-105.55,39.599999999999994],[-105.55,39.55]]]},"properties":{"id":"r000c000","pca_color":"#594fd8","cluster":0,"ndvi":-0.3677691459040014}},{"type":"Feature","geometry":{"type":"Polygon","coordinates":[[[-105.5,39.55],[-105.45,39.55],[-105.45,39.599999999999994],[-105.5,39.599999999999994],[-105.5,39.55]]]},"properties":{"id":"r000c001","pca_color":"#5b4fcf","cluster":0,"ndvi":-0.4398120589274038}},{"type":"Feature","geometry":{"type":"Polygon","coordinates":[[[-105.45,39.55],[-105.39999999999999,39.55],[-105.39999999999999,39.599999999999994],[-105.45,39.599999999999994],[-105.45,39.55]]]},"properties":{"id":"r000c002","pca_color":"#6881c8","cluster":1,"ndvi":-0.3024311780824471}},{"type":"Feature","geometry":{"type":"Polygon","coordinates":[[[-105.39999999999999,39.55],[-105.35,39.55],[-105.35,39.599999999999994],[-105.39999999999999,39.599999999999994],[-105.39999999999999,39.55]]]},"properties":{"id":"r000c003","pca_color":"#7582c6","cluster":1,"ndvi":-0.2308138608493907}},{"type":"Feature","geometry":{"type":"Polygon","coordinates":[[[-105.35,39.55],[-105.3,39.55],[-105.3,39.599999999999994],[-105.35,39.599999999999994],[-105.35,39.55]]]},"properties":{"id":"r000c004","pca_color":"#86ada9","cluster":2,"ndvi":0.0426946164074794}},{"type":"Feature","geometry":{"type":"Polygon","coordinates":[[[-105.3,39.55],[-105.25,39.55],[-105.25,39.599999999999994],[-105.3,39.599999999999994],[-105.3,39.55]]]},"properties":{"id":"r000c005","pca_color":"#81a9a8","cluster":2,"ndvi":-0.057048481659520686}},{"type":"Feature","geometry":{"type":"Polygon","coordinates":[[[-105.25,39.55],[-105.2,39.55],[-105.2,39.599999999999994],[-105.25,39.599999999999994],[-105.25,39.55]]]},"properties":{"id":"r000c006","pca_color":"#8ce496","cluster":3,"ndvi":0.1336343825369301}},{"type":"Feature","geometry":{"type":"Polygon","coordinates":[[[-105.2,39.55],[-105.15,39.55],[-105.15,39.599999999999994],[-105.2,39.599999999999994],[-105.2,39.55]]]},"properties":{"id":"r000c007","pca_color":"#93ee9d","cluster":3,"ndvi":0.15254195338466287}},{"type":"Feature","geometry":{"type":"Polygon","coordinates":[[[-105.15,39.55],[-105.1,39.55],[-105.1,39.599999999999994],[-105.15,39.599999999999994],[-105.15,39.55]]]},"properties":{"id":"r000c008","pca_color":"#aa678c","cluster":4,"ndvi":0.3110793114225749}},{"type":"Feature","geometry":{"type":"Polygon","coordinates":[[[-105.1,39.55],[-105.05,39.55],[-105.05,39.599999999999994],[-105.1,39.599999999999994],[-105.1,39.55]]]},"properties":{"id":"r000c009","pca_color":"#af6784","cluster":4,"ndvi":0.31874275213048914}},{"type":"Feature","geometry":{"type":"Polygon","coordinates":[[[-105.05,39.55],[-105,39.55],[-105,39.599999999999994],[-105.05,39.599999999999994],[-105.05,39.55]]]},"properties":{"id":"r000c010","pca_color":"#c1926e","cluster":5,"ndvi":0.38622146249339984}},{"type":"Feature","geometry":{"type":"Polygon","coordinates":[[[-105,39.55],[-104.95,39.55],[-104.95,39.599999999999994],[-105,39.599999999999994],[-105,39.55]]]},"properties":{"id":"r000c011","pca_color":"#bea37d","cluster":5,"ndvi":0.5169734769230585}},{"type":"Feature","geometry":{"type":"Polygon","coordinates":[[[-104.95,39.55],[-104.9,39.55],[-104.9,39.599999999999994],[-104.95,39.599999999999994],[-104.95,39.55]]]},"properties":{"id":"r000c012","pca_color":"#d7cc6e","cluster":6,"ndvi":0.6641469955975873}},{"type":"Feature","geometry":{"type":"Polygon","coordinates":[[[-104.9,39.55],[-104.85,39.55],[-104.85,39.599999999999994],[-104.9,39.599999999999994],[-104.9,39.55]]]},"properties":{"id":"r000c013","pca_color":"#d6d75f","cluster":6,"ndvi":0.6294101000201934}},{"type":"Feature","geometry":{"type":"Polygon","coordinates":[[[-104.85,39.55],[-104.8,39.55],[-104.8,39.599999999999994],[-104.85,39.599999999999994],[-104.85,39.55]]]},"properties":{"id":"r000c014","pca_color":"#e5574c","cluster":7,"ndvi":0.7277489244950696}},{"type":"Feature","geometry":{"type":"Polygon","coordinates":[[[-104.8,39.55],[-104.75,39.55],[-104.75,39.599999999999994],[-104.8,39.599999999999994],[-104.8,39.55]]]},"properties":{"id":"r000c015","pca_color":"#eb535d","cluster":7,"ndvi":0.7289556741732897}},{"type":"Feature","geometry":{"type":"Polygon","coordinates":[[[-105.55,39.599999999999994],[-105.5,39.599999999999994],[-105.5,39.65],[-105.55,39.65],[-105.55,39.599999999999994]]]},"properties":{"id":"r001c000","pca_color":"#6880ba","cluster":1,"ndvi":-0.1989249467262649}},{"type":"Feature","geometry":{"type":"Polygon","coordinates":[[[-105.5,39.599999999999994],[-105.45,39.599999999999994],[-105.45,39.65],[-105.5,39.65],[-105.5,39.599999999999994]]]},"properties":{"id":"r001c001","pca_color":"#6a76bc","cluster":1,"ndvi":-0.31009299754402275}},{"type":"Feature","geometry":{"type":"Polygon","coordinates":[[[-105.45,39.599999999999994],[-105.39999999999999,39.599999999999994],[-105.39999999999999,39.65],[-105.45,39.65],[-105.45,39.599999999999994]]]},"properties":{"id":"r001c002","pca_color":"#7caaa6","cluster":2,"ndvi":-0.10581399796335683}},{"type":"Feature","geometry":{"type":"Polygon","coordinates":[[[-105.39999999999999,39.599999999999994],[-105.35,39.599999999999994],[-105.35,39.65],[-105.39999999999999,39.65],[-105.39999999999999,39.599999999999994]]]},"properties":{"id":"r001c003","pca_color":"#81b2a9","cluster":2,"ndvi":0.008177828862414582}},{"type":"Feature","geometry":{"type":"Polygon","coordinates":[[[-105.35,39.599999999999994],[-105.3,39.599999999999994],[-105.3,39.65],[-105.35,39.65],[-105.35,39.599999999999994]]]},"properties":{"id":"r001c004","pca_color":"#93dea6","cluster":3,"ndvi":0.042080068596210246}},{"type":"Feature","geometry":{"type":"Polygon","coordinates":[[[-105.3,39.599999999999994],[-105.25,39.599999999999994],[-105.25,39.65],[-105.3,39.65],[-105.3,39.599999999999994]]]},"properties":{"id":"r001c005","pca_color":"#99e89d","cluster":3,"ndvi":0.056357240691481625}},{"type":"Feature","geometry":{"type":"Polygon","coordinates":[[[-105.25,39.599999999999994],[-105.2,39.599999999999994],[-105.2,39.65],[-105.25,39.65],[-105.25,39.599999999999994]]]},"properties":{"id":"r001c006","pca_color":"#aa6c89","cluster":4,"ndvi":0.3572308302657822}},{"type":"Feature","geometry":{"type":"Polygon","coordinates":[[[-105.2,39.599999999999994],[-105.15,39.599999999999994],[-105.15,39.65],[-105.2,39.65],[-105.2,39.599999999999994]]]},"properties":{"id":"r001c007","pca_color":"#b06393","cluster":4,"ndvi":0.3046728611479852}},{"type":"Feature","geometry":{"type":"Polygon","coordinates":[[[-105.15,39.599999999999994],[-105.1,39.599999999999994],[-105.1,39.65],[-105.15,39.65],[-105.15,39.599999999999994]]]},"properties":{"id":"r001c008","pca_color":"#b99478","cluster":5,"ndvi":0.5669092417656952}},{"type":"Feature","geometry":{"type":"Polygon","coordinates":[[[-105.1,39.599999999999994],[-105.05,39.599999999999994],[-105.05,39.65],[-105.1,39.65],[-105.1,39.599999999999994]]]},"properties":{"id":"r001c009","pca_color":"#bc9b79","cluster":5,"ndvi":0.3786127619462147}},{"type":"Feature","geometry":{"type":"Polygon","coordinates":[[[-105.05,39.599999999999994],[-105,39.599999999999994],[-105,39.65],[-105.05,39.65],[-105.05,39.599999999999994]]]},"properties":{"id":"r001c010","pca_color":"#cdc76a","cluster":6,"ndvi":0.6032296657810123}},{"type":"Feature","geometry":{"type":"Polygon","coordinates":[[[-105,39.599999999999994],[-104.95,39.599999999999994],[-104.95,39.65],[-105,39.65],[-105,39.599999999999994]]]},"properties":{"id":"r001c011","pca_color":"#ccc867","cluster":6,"ndvi":0.7014355183352879}},{"type":"Feature","geometry":{"type":"Polygon","coordinates":[[[-104.95,39.599999999999994],[-104.9,39.599999999999994],[-104.9,39.65],[-104.95,39.65],[-104.95,39.599999999999994]]]},"properties":{"id":"r001c012","pca_color":"#df4c50","cluster":7,"ndvi":0.8748201847774069}},{"type":"Feature","geometry":{"type":"Polygon","coordinates":[[[-104.9,39.599999999999994],[-104.85,39.599999999999994],[-104.85,39.65],[-104.9,39.65],[-104.9,39.599999999999994]]]},"properties":{"id":"r001c013","pca_color":"#ed5a56","cluster":7,"ndvi":0.7924970865563941}},{"type":"Feature","geometry":{"type":"Polygon","coordinates":[[[-104.85,39.599999999999994],[-104.8,39.599999999999994],[-104.8,39.65],[-104.85,39.65],[-104.85,39.599999999999994]]]},"properties":{"id":"r001c014","pca_color":"#5a46d2","cluster":0,"ndvi":-0.40230431030611713}},{"type":"Feature","geometry":{"type":"Polygon","coordinates":[[[-104.8,39.599999999999994],[-104.75,39.599999999999994],[-104.75,39.65],[-104.8,39.65],[-104.8,39.599999999999994]]]},"properties":{"id":"r001c015","pca_color":"#644dcc","cluster":0,"ndvi":-0.4939207255811993}},{"type":"Feature","geometry":{"type":"Polygon","coordinates":[[[-105.55,39.65],[-105.5,39.65],[-105.5,39.699999999999996],[-105.55,39.699999999999996],[-105.55,39.65]]]},"properties":{"id":"r002c000","pca_color":"#89a6aa","cluster":2,"ndvi":-0.038461780496156714}},{"type":"Feature","geometry":{"type":"Polygon","coordinates":[[[-105.5,39.65],[-105.45,39.65],[-105.45,39.699999999999996],[-105.5,39.699999999999996],[-105.5,39.65]]]},"properties":{"id":"r002c001","pca_color":"#7faab0","cluster":2,"ndvi":0.00683417327554621}},{"type":"Feature","geometry":{"type":"Polygon","coordinates":[[[-105.45,39.65],[-105.39999999999999,39.65],[-105.39999999999999,39.699999999999996],[-105.45,39.699999999999996],[-105.45,39.65]]]},"properties":{"id":"r002c002","pca_color":"#94e5a2","cluster":3,"ndvi":0.21010518082655266}},{"type":"Feature","geometry":{"type":"Polygon","coordinates":[[[-105.39999999999999,39.65],[-105.35,39.65],[-105.35,39.699999999999996],[-105.39999999999999,39.699999999999996],[-105.39999999999999,39.65]]]},"properties":{"id":"r002c003","pca_color":"#91eda0","cluster":3,"ndvi":0.1909574509439791}},{"type":"Feature","geometry":{"type":"Polygon","coordinates":[[[-105.35,39.65],[-105.3,39.65],[-105.3,39.699999999999996],[-105.35,39.699999999999996],[-105.35,39.65]]]},"properties":{"id":"r002c004","pca_color":"#ad6289","cluster":4,"ndvi":0.2779397011166157}},{"type":"Feature","geometry":{"type":"Polygon","coordinates":[[[-105.3,39.65],[-105.25,39.65],[-105.25,39.699999999999996],[-105.3,39.699999999999996],[-105.3,39.65]]]},"properties":{"id":"r002c005","pca_color":"#a46d89","cluster":4,"ndvi":0.29066653255869934}},{"type":"Feature","geometry":{"type":"Polygon","coordinates":[[[-105.25,39.65],[-105.2,39.65],[-105.2,39.699999999999996],[-105.25,39.699999999999996],[-105.25,39.65]]]},"properties":{"id":"r002c006","pca_color":"#c49c76","cluster":5,"ndvi":0.4443773269976383}},{"type":"Feature","geometry":{"type":"Polygon","coordinates":[[[-105.2,39.65],[-105.15,39.65],[-105.15,39.699999999999996],[-105.2,39.699999999999996],[-105.2,39.65]]]},"properties":{"id":"r002c007","pca_color":"#c59d72","cluster":5,"ndvi":0.5591767788790989}},{"type":"Feature","geometry":{"type":"Polygon","coordinates":[[[-105.15,39.65],[-105.1,39.65],[-105.1,39.699999999999996],[-105.15,39.699999999999996],[-105.15,39.65]]]},"properties":{"id":"r002c008","pca_color":"#cac86b","cluster":6,"ndvi":0.7465175391158635}},{"type":"Feature","geometry":{"type":"Polygon","coordinates":[[[-105.1,39.65],[-105.05,39.65],[-105.05,39.699999999999996],[-105.1,39.699999999999996],[-105.1,39.65]]]},"properties":{"id":"r002c009","pca_color":"#d2d56b","cluster":6,"ndvi":0.6209290981623012}},{"type":"Feature","geometry":{"type":"Polygon","coordinates":[[[-105.05,39.65],[-105,39.65],[-105,39.699999999999996],[-105.05,39.699999999999996],[-105.05,39.65]]]},"properties":{"id":"r002c010","pca_color":"#de4f59","cluster":7,"ndvi":0.7781190157183999}},{"type":"Feature","geometry":{"type":"Polygon","coordinates":[[[-105,39.65],[-104.95,39.65],[-104.95,39.699999999999996],[-105,39.699999999999996],[-105,39.65]]]},"properties":{"id":"r002c011","pca_color":"#ed4954","cluster":7,"ndvi":0.8675320447154956}},{"type":"Feature","geometry":{"type":"Polygon","coordinates":[[[-104.95,39.65],[-104.9,39.65],[-104.9,39.699999999999996],[-104.95,39.699999999999996],[-104.95,39.65]]]},"properties":{"id":"r002c012","pca_color":"#6345c9","cluster":0,"ndvi":-0.44443750378882396}},{"type":"Feature","geometry":{"type":"Polygon","coordinates":[[[-104.9,39.65],[-104.85,39.65],[-104.85,39.699999999999996],[-104.9,39.699999999999996],[-104.9,39.65]]]},"properties":{"id":"r002c013","pca_color":"#5342dc","cluster":0,"ndvi":-0.3564194678591655}},{"type":"Feature","geometry":{"type":"Polygon","coordinates":[[[-104.85,39.65],[-104.8,39.65],[-104.8,39.699999999999996],[-104.85,39.699999999999996],[-104.85,39.65]]]},"properties":{"id":"r002c014","pca_color":"#657dc4","cluster":1,"ndvi":-0.20917246336311685}},{"type":"Feature","geometry":{"type":"Polygon","coordinates":[[[-104.8,39.65],[-104.75,39.65],[-104.75,39.699999999999996],[-104.8,39.699999999999996],[-104.8,39.65]]]},"properties":{"id":"r002c015","pca_color":"#7473ba","cluster":1,"ndvi":-0.19172854417317017}},{"type":"Feature","geometry":{"type":"Polygon","coordinates":[[[-105.55,39.699999999999996],[-105.5,39.699999999999996],[-105.5,39.75],[-105.55,39.75],[-105.55,39.699999999999996]]]},"properties":{"id":"r003c000","pca_color":"#8ce193","cluster":3,"ndvi":0.1986640275333374}},{"type":"Feature","geometry":{"type":"Polygon","coordinates":[[[-105.5,39.699999999999996],[-105.45,39.699999999999996],[-105.45,39.75],[-105.5,39.75],[-105.5,39.699999999999996]]]},"properties":{"id":"r003c001","pca_color":"#9ae9a0","cluster":3,"ndvi":0.04537377358431627}},{"type":"Feature","geometry":{"type":"Polygon","coordinates":[[[-105.45,39.699999999999996],[-105.39999999999999,39.699999999999996],[-105.39999999999999,39.75],[-105.45,39.75],[-105.45,39.699999999999996]]]},"properties":{"id":"r003c002","pca_color":"#a46d93","cluster":4,"ndvi":0.3233808518030591}},{"type":"Feature","geometry":{"type":"Polygon","coordinates":[[[-105.39999999999999,39.699999999999996],[-105.35,39.699999999999996],[-105.35,39.75],[-105.39999999999999,39.75],[-105.39999999999999,39.699999999999996]]]},"properties":{"id":"r003c003","pca_color":"#b16f8d","cluster":4,"ndvi":0.26368948224172434}},{"type":"Feature","geometry":{"type":"Polygon","coordinates":[[[-105.35,39.699999999999996],[-105.3,39.699999999999996],[-105.3,39.75],[-105.35,39.75],[-105.35,39.699999999999996]]]},"properties":{"id":"r003c004","pca_color":"#bb9a7e","cluster":5,"ndvi":0.4416815638852685}},{"type":"Feature","geometry":{"type":"Polygon","coordinates":[[[-105.3,39.699999999999996],[-105.25,39.699999999999996],[-105.25,39.75],[-105.3,39.75],[-105.3,39.699999999999996]]]},"properties":{"id":"r003c005","pca_color":"#bfa17a","cluster":5,"ndvi":0.5392111302186786}},{"type":"Feature","geometry":{"type":"Polygon","coordinates":[[[-105.25,39.699999999999996],[-105.2,39.699999999999996],[-105.2,39.75],[-105.25,39.75],[-105.25,39.699999999999996]]]},"properties":{"id":"r003c006","pca_color":"#ccd06b","cluster":6,"ndvi":0.6031715870151162}},{"type":"Feature","geometry":{"type":"Polygon","coordinates":[[[-105.2,39.699999999999996],[-105.15,39.699999999999996],[-105.15,39.75],[-105.2,39.75],[-105.2,39.699999999999996]]]},"properties":{"id":"r003c007","pca_color":"#d8d366","cluster":6,"ndvi":0.5512171983724539}},{"type":"Feature","geometry":{"type":"Polygon","coordinates":[[[-105.15,39.699999999999996],[-105.1,39.699999999999996],[-105.1,39.75],[-105.15,39.75],[-105.15,39.699999999999996]]]},"properties":{"id":"r003c008","pca_color":"#e2494d","cluster":7,"ndvi":0.8006123543137741}},{"type":"Feature","geometry":{"type":"Polygon","coordinates":[[[-105.1,39.699999999999996],[-105.05,39.699999999999996],[-105.05,39.75],[-105.1,39.75],[-105.1,39.699999999999996]]]},"properties":{"id":"r003c009","pca_color":"#e64c52","cluster":7,"ndvi":0.8927178145235951}},{"type":"Feature","geometry":{"type":"Polygon","coordinates":[[[-105.05,39.699999999999996],[-105,39.699999999999996],[-105,39.75],[-105.05,39.75],[-105.05,39.699999999999996]]]},"properties":{"id":"r003c010","pca_color":"#5f3ecf","cluster":0,"ndvi":-0.47063984869543457}},{"type":"Feature","geometry":{"type":"Polygon","coordinates":[[[-105,39.699999999999996],[-104.95,39.699999999999996],[-104.95,39.75],[-105,39.75],[-105,39.699999999999996]]]},"properties":{"id":"r003c011","pca_color":"#5349db","cluster":0,"ndvi":-0.4084278344681616}},{"type":"Feature","geometry":{"type":"Polygon","coordinates":[[[-104.95,39.699999999999996],[-104.9,39.699999999999996],[-104.9,39.75],[-104.95,39.75],[-104.95,39.699999999999996]]]},"properties":{"id":"r003c012","pca_color":"#7577ca","cluster":1,"ndvi":-0.17191014282727157}},{"type":"Feature","geometry":{"type":"Polygon","coordinates":[[[-104.9,39.699999999999996],[-104.85,39.699999999999996],[-104.85,39.75],[-104.9,39.75],[-104.9,39.699999999999996]]]},"properties":{"id":"r003c013","pca_color":"#6d7aba","cluster":1,"ndvi":-0.1530521815773343}},{"type":"Feature","geometry":{"type":"Polygon","coordinates":[[[-104.85,39.699999999999996],[-104.8,39.699999999999996],[-104.8,39.75],[-104.85,39.75],[-104.85,39.699999999999996]]]},"properties":{"id":"r003c014","pca_color":"#7aaba9","cluster":2,"ndvi":-0.1348356485296207}},{"type":"Feature","geometry":{"type":"Polygon","coordinates":[[[-104.8,39.699999999999996],[-104.75,39.699999999999996],[-104.75,39.75],[-104.8,39.75],[-104.8,39.699999999999996]]]},"properties":{"id":"r003c015","pca_color":"#86b3b3","cluster":2,"ndvi":-0.07327177520993719}},{"type":"Feature","geometry":{"type":"Polygon","coordinates":[[[-105.55,39.75],[-105.5,39.75],[-105.5,39.8],[-105.55,39.8],[-105.55,39.75]]]},"properties":{"id":"r004c000","pca_color":"#a6698d","cluster":4,"ndvi":0.21421893239683415}},{"type":"Feature","geometry":{"type":"Polygon","coordinates":[[[-105.5,39.75],[-105.45,39.75],[-105.45,39.8],[-105.5,39.8],[-105.5,39.75]]]},"properties":{"id":"r004c001","pca_color":"#a46d82","cluster":4,"ndvi":0.30898798113176035}},{"type":"Feature","geometry":{"type":"Polygon","coordinates":[[[-105.45,39.75],[-105.39999999999999,39.75],[-105.39999999999999,39.8],[-105.45,39.8],[-105.45,39.75]]]},"properties":{"id":"r004c002","pca_color":"#ba9a73","cluster":5,"ndvi":0.3969388246638415}},{"type":"Feature","geometry":{"type":"Polygon","coordinates":[[[-105.39999999999999,39.75],[-105.35,39.75],[-105.35,39.8],[-105.39999999999999,39.8],[-105.39999999999999,39.75]]]},"properties":{"id":"r004c003","pca_color":"#b8a078","cluster":5,"ndvi":0.3774552583705891}},{"type":"Feature","geometry":{"type":"Polygon","coordinates":[[[-105.35,39.75],[-105.3,39.75],[-105.3,39.8],[-105.35,39.8],[-105.35,39.75]]]},"properties":{"id":"r004c004","pca_color":"#dacf6a","cluster":6,"ndvi":0.5778910637031731}},{"type":"Feature","geometry":{"type":"Polygon","coordinates":[[[-105.3,39.75],[-105.25,39.75],[-105.25,39.8],[-105.3,39.8],[-105.3,39.75]]]},"properties":{"id":"r004c005","pca_color":"#c9d165","cluster":6,"ndvi":0.6384762287551891}},{"type":"Feature","geometry":{"type":"Polygon","coordinates":[[[-105.25,39.75],[-105.2,39.75],[-105.2,39.8],[-105.25,39.8],[-105.25,39.75]]]},"properties":{"id":"r004c006","pca_color":"#e74a53","cluster":7,"ndvi":0.9059963227161187}},{"type":"Feature","geometry":{"type":"Polygon","coordinates":[[[-105.2,39.75],[-105.15,39.75],[-105.15,39.8],[-105.2,39.8],[-105.2,39.75]]]},"properties":{"id":"r004c007","pca_color":"#e04856","cluster":7,"ndvi":0.7276115655911207}},{"type":"Feature","geometry":{"type":"Polygon","coordinates":[[[-105.15,39.75],[-105.1,39.75],[-105.1,39.8],[-105.15,39.8],[-105.15,39.75]]]},"properties":{"id":"r004c008","pca_color":"#594ccd","cluster":0,"ndvi":-0.4209703683485139}},{"type":"Feature","geometry":{"type":"Polygon","coordinates":[[[-105.1,39.75],[-105.05,39.75],[-105.05,39.8],[-105.1,39.8],[-105.1,39.75]]]},"properties":{"id":"r004c009","pca_color":"#5b4acf","cluster":0,"ndvi":-0.49357862472235164}},{"type":"Feature","geometry":{"type":"Polygon","coordinates":[[[-105.05,39.75],[-105,39.75],[-105,39.8],[-105.05,39.8],[-105.05,39.75]]]},"properties":{"id":"r004c010","pca_color":"#7584c5","cluster":1,"ndvi":-0.14573571673628677}},{"type":"Feature","geometry":{"type":"Polygon","coordinates":[[[-105,39.75],[-104.95,39.75],[-104.95,39.8],[-105,39.8],[-105,39.75]]]},"properties":{"id":"r004c011","pca_color":"#7679c1","cluster":1,"ndvi":-0.1371824502070353}},{"type":"Feature","geometry":{"type":"Polygon","coordinates":[[[-104.95,39.75],[-104.9,39.75],[-104.9,39.8],[-104.95,39.8],[-104.95,39.75]]]},"properties":{"id":"r004c012","pca_color":"#79a6aa","cluster":2,"ndvi":0.04365730294662398}},{"type":"Feature","geometry":{"type":"Polygon","coordinates":[[[-104.9,39.75],[-104.85,39.75],[-104.85,39.8],[-104.9,39.8],[-104.9,39.75]]]},"properties":{"id":"r004c013","pca_color":"#7fb9b5","cluster":2,"ndvi":-0.11395130155792059}},{"type":"Feature","geometry":{"type":"Polygon","coordinates":[[[-104.85,39.75],[-104.8,39.75],[-104.8,39.8],[-104.85,39.8],[-104.85,39.75]]]},"properties":{"id":"r004c014","pca_color":"#94dd9a","cluster":3,"ndvi":0.07421538832095226}},{"type":"Feature","geometry":{"type":"Polygon","coordinates":[[[-104.8,39.75],[-104.75,39.75],[-104.75,39.8],[-104.8,39.8],[-104.8,39.75]]]},"properties":{"id":"r004c015","pca_color":"#98ee9c","cluster":3,"ndvi":0.11914325360867335}},{"type":"Feature","geometry":{"type":"Polygon","coordinates":[[[-105.55,39.8],[-105.5,39.8],[-105.5,39.85],[-105.55,39.85],[-105.55,39.8]]]},"properties":{"id":"r005c000","pca_color":"#b99875","cluster":5,"ndvi":0.5406719208535141}},{"type":"Feature","geometry":{"type":"Polygon","coordinates":[[[-105.5,39.8],[-105.45,39.8],[-105.45,39.85],[-105.5,39.85],[-105.5,39.8]]]},"properties":{"id":"r005c001","pca_color":"#bb947d","cluster":5,"ndvi":0.5466794610822943}},{"type":"Feature","geometry":{"type":"Polygon","coordinates":[[[-105.45,39.8],[-105.39999999999999,39.8],[-105.39999999999999,39.85],[-105.45,39.85],[-105.45,39.8]]]},"properties":{"id":"r005c002","pca_color":"#dbda68","cluster":6,"ndvi":0.7418539286553177}},{"type":"Feature","geometry":{"type":"Polygon","coordinates":[[[-105.39999999999999,39.8],[-105.35,39.8],[-105.35,39.85],[-105.39999999999999,39.85],[-105.39999999999999,39.8]]]},"properties":{"id":"r005c003","pca_color":"#cccc63","cluster":6,"ndvi":0.6060216725133458}},{"type":"Feature","geometry":{"type":"Polygon","coordinates":[[[-105.35,39.8],[-105.3,39.8],[-105.3,39.85],[-105.35,39.85],[-105.35,39.8]]]},"properties":{"id":"r005c004","pca_color":"#e0584b","cluster":7,"ndvi":0.8405573368610614}},{"type":"Feature","geometry":{"type":"Polygon","coordinates":[[[-105.3,39.8],[-105.25,39.8],[-105.25,39.85],[-105.3,39.85],[-105.3,39.8]]]},"properties":{"id":"r005c005","pca_color":"#e4505c","cluster":7,"ndvi":0.7932977438291057}},{"type":"Feature","geometry":{"type":"Polygon","coordinates":[[[-105.25,39.8],[-105.2,39.8],[-105.2,39.85],[-105.25,39.85],[-105.25,39.8]]]},"properties":{"id":"r005c006","pca_color":"#5e3ecb","cluster":0,"ndvi":-0.39498214716789415}},{"type":"Feature","geometry":{"type":"Polygon","coordinates":[[[-105.2,39.8],[-105.15,39.8],[-105.15,39.85],[-105.2,39.85],[-105.2,39.8]]]},"properties":{"id":"r005c007","pca_color":"#624cd6","cluster":0,"ndvi":-0.3311604975867833}},{"type":"Feature","geometry":{"type":"Polygon","coordinates":[[[-105.15,39.8],[-105.1,39.8],[-105.1,39.85],[-105.15,39.85],[-105.15,39.8]]]},"properties":{"id":"r005c008","pca_color":"#7580c0","cluster":1,"ndvi":-0.28343899248095183}},{"type":"Feature","geometry":{"type":"Polygon","coordinates":[[[-105.1,39.8],[-105.05,39.8],[-105.05,39.85],[-105.1,39.85],[-105.1,39.8]]]},"properties":{"id":"r005c009","pca_color":"#7475ca","cluster":1,"ndvi":-0.2544583260684546}},{"type":"Feature","geometry":{"type":"Polygon","coordinates":[[[-105.05,39.8],[-105,39.8],[-105,39.85],[-105.05,39.85],[-105.05,39.8]]]},"properties":{"id":"r005c010","pca_color":"#7ab0ae","cluster":2,"ndvi":-0.03884925837109301}},{"type":"Feature","geometry":{"type":"Polygon","coordinates":[[[-105,39.8],[-104.95,39.8],[-104.95,39.85],[-105,39.85],[-105,39.8]]]},"properties":{"id":"r005c011","pca_color":"#86b1a8","cluster":2,"ndvi":-0.03294711107525379}},{"type":"Feature","geometry":{"type":"Polygon","coordinates":[[[-104.95,39.8],[-104.9,39.8],[-104.9,39.85],[-104.95,39.85],[-104.95,39.8]]]},"properties":{"id":"r005c012","pca_color":"#9ce3a0","cluster":3,"ndvi":0.11162319187383304}},{"type":"Feature","geometry":{"type":"Polygon","coordinates":[[[-104.9,39.8],[-104.85,39.8],[-104.85,39.85],[-104.9,39.85],[-104.9,39.8]]]},"properties":{"id":"r005c013","pca_color":"#a0e6a4","cluster":3,"ndvi":0.08347769382338852}},{"type":"Feature","geometry":{"type":"Polygon","coordinates":[[[-104.85,39.8],[-104.8,39.8],[-104.8,39.85],[-104.85,39.85],[-104.85,39.8]]]},"properties":{"id":"r005c014","pca_color":"#a76890","cluster":4,"ndvi":0.34577109820478175}},{"type":"Feature","geometry":{"type":"Polygon","coordinates":[[[-104.8,39.8],[-104.75,39.8],[-104.75,39.85],[-104.8,39.85],[-104.8,39.8]]]},"properties":{"id":"r005c015","pca_color":"#a36582","cluster":4,"ndvi":0.2456664562437992}},{"type":"Feature","geometry":{"type":"Polygon","coordinates":[[[-105.55,39.85],[-105.5,39.85],[-105.5,39.9],[-105.55,39.9],[-105.55,39.85]]]},"properties":{"id":"r006c000","pca_color":"#dbd270","cluster":6,"ndvi":0.5684745311823087}},{"type":"Feature","geometry":{"type":"Polygon","coordinates":[[[-105.5,39.85],[-105.45,39.85],[-105.45,39.9],[-105.5,39.9],[-105.5,39.85]]]},"properties":{"id":"r006c001","pca_color":"#c9d461","cluster":6,"ndvi":0.6774289847013674}},{"type":"Feature","geometry":{"type":"Polygon","coordinates":[[[-105.45,39.85],[-105.39999999999999,39.85],[-105.39999999999999,39.9],[-105.45,39.9],[-105.45,39.85]]]},"properties":{"id":"r006c002","pca_color":"#ed4a4e","cluster":7,"ndvi":0.8546868563302265}},{"type":"Feature","geometry":{"type":"Polygon","coordinates":[[[-105.39999999999999,39.85],[-105.35,39.85],[-105.35,39.9],[-105.39999999999999,39.9],[-105.39999999999999,39.85]]]},"properties":{"id":"r006c003","pca_color":"#e2534f","cluster":7,"ndvi":0.7838528156554571}},{"type":"Feature","geometry":{"type":"Polygon","coordinates":[[[-105.35,39.85],[-105.3,39.85],[-105.3,39.9],[-105.35,39.9],[-105.35,39.85]]]},"properties":{"id":"r006c004","pca_color":"#544ad4","cluster":0,"ndvi":-0.49504017233617614}},{"type":"Feature","geometry":{"type":"Polygon","coordinates":[[[-105.3,39.85],[-105.25,39.85],[-105.25,39.9],[-105.3,39.9],[-105.3,39.85]]]},"properties":{"id":"r006c005","pca_color":"#5348d1","cluster":0,"ndvi":-0.4219343781107731}},{"type":"Feature","geometry":{"type":"Polygon","coordinates":[[[-105.25,39.85],[-105.2,39.85],[-105.2,39.9],[-105.25,39.9],[-105.25,39.85]]]},"properties":{"id":"r006c006","pca_color":"#6b84c1","cluster":1,"ndvi":-0.31832804679559923}},{"type":"Feature","geometry":{"type":"Polygon","coordinates":[[[-105.2,39.85],[-105.15,39.85],[-105.15,39.9],[-105.2,39.9],[-105.2,39.85]]]},"properties":{"id":"r006c007","pca_color":"#727ebb","cluster":1,"ndvi":-0.17849318974348402}},{"type":"Feature","geometry":{"type":"Polygon","coordinates":[[[-105.15,39.85],[-105.1,39.85],[-105.1,39.9],[-105.15,39.9],[-105.15,39.85]]]},"properties":{"id":"r006c008","pca_color":"#7fafb6","cluster":2,"ndvi":-0.09087349024641961}},{"type":"Feature","geometry":{"type":"Polygon","coordinates":[[[-105.1,39.85],[-105.05,39.85],[-105.05,39.9],[-105.1,39.9],[-105.1,39.85]]]},"properties":{"id":"r006c009","pca_color":"#7eaeb8","cluster":2,"ndvi":-0.05202045436111304}},{"type":"Feature","geometry":{"type":"Polygon","coordinates":[[[-105.05,39.85],[-105,39.85],[-105,39.9],[-105.05,39.9],[-105.05,39.85]]]},"properties":{"id":"r006c010","pca_color":"#97e5a5","cluster":3,"ndvi":0.04927506447968763}},{"type":"Feature","geometry":{"type":"Polygon","coordinates":[[[-105,39.85],[-104.95,39.85],[-104.95,39.9],[-105,39.9],[-105,39.85]]]},"properties":{"id":"r006c011","pca_color":"#9ae995","cluster":3,"ndvi":0.09918959144232299}},{"type":"Feature","geometry":{"type":"Polygon","coordinates":[[[-104.95,39.85],[-104.9,39.85],[-104.9,39.9],[-104.95,39.9],[-104.95,39.85]]]},"properties":{"id":"r006c012","pca_color":"#ad6e82","cluster":4,"ndvi":0.3169316530772166}},{"type":"Feature","geometry":{"type":"Polygon","coordinates":[[[-104.9,39.85],[-104.85,39.85],[-104.85,39.9],[-104.9,39.9],[-104.9,39.85]]]},"properties":{"id":"r006c013","pca_color":"#a85c93","cluster":4,"ndvi":0.2602436542791517}},{"type":"Feature","geometry":{"type":"Polygon","coordinates":[[[-104.85,39.85],[-104.8,39.85],[-104.8,39.9],[-104.85,39.9],[-104.85,39.85]]]},"properties":{"id":"r006c014","pca_color":"#bc9e7e","cluster":5,"ndvi":0.4894964457091393}},{"type":"Feature","geometry":{"type":"Polygon","coordinates":[[[-104.8,39.85],[-104.75,39.85],[-104.75,39.9],[-104.8,39.9],[-104.8,39.85]]]},"properties":{"id":"r006c015","pca_color":"#bfa07e","cluster":5,"ndvi":0.5277285397763962}},{"type":"Feature","geometry":{"type":"Polygon","coordinates":[[[-105.55,39.9],[-105.5,39.9],[-105.5,39.949999999999996],[-105.55,39.949999999999996],[-105.55,39.9]]]},"properties":{"id":"r007c000","pca_color":"#ef564b","cluster":7,"ndvi":0.7567125797419401}},{"type":"Feature","geometry":{"type":"Polygon","coordinates":[[[-105.5,39.9],[-105.45,39.9],[-105.45,39.949999999999996],[-105.5,39.949999999999996],[-105.5,39.9]]]},"properties":{"id":"r007c001","pca_color":"#e35657","cluster":7,"ndvi":0.9153029442719662}},{"type":"Feature","geometry":{"type":"Polygon","coordinates":[[[-105.45,39.9],[-105.39999999999999,39.9],[-105.39999999999999,39.949999999999996],[-105.45,39.949999999999996],[-105.45,39.9]]]},"properties":{"id":"r007c002","pca_color":"#524aca","cluster":0,"ndvi":-0.44344248769033817}},{"type":"Feature","geometry":{"type":"Polygon","coordinates":[[[-105.39999999999999,39.9],[-105.35,39.9],[-105.35,39.949999999999996],[-105.39999999999999,39.949999999999996],[-105.39999999999999,39.9]]]},"properties":{"id":"r007c003","pca_color":"#5d42d2","cluster":0,"ndvi":-0.3949637889372948}},{"type":"Feature","geometry":{"type":"Polygon","coordinates":[[[-105.35,39.9],[-105.3,39.9],[-105.3,39.949999999999996],[-105.35,39.949999999999996],[-105.35,39.9]]]},"properties":{"id":"r007c004","pca_color":"#767fbe","cluster":1,"ndvi":-0.12784034600613658}},{"type":"Feature","geometry":{"type":"Polygon","coordinates":[[[-105.3,39.9],[-105.25,39.9],[-105.25,39.949999999999996],[-105.3,39.949999999999996],[-105.3,39.9]]]},"properties":{"id":"r007c005","pca_color":"#737ebc","cluster":1,"ndvi":-0.2725963830703853}},{"type":"Feature","geometry":{"type":"Polygon","coordinates":[[[-105.25,39.9],[-105.2,39.9],[-105.2,39.949999999999996],[-105.25,39.949999999999996],[-105.25,39.9]]]},"properties":{"id":"r007c006","pca_color":"#8ab0b2","cluster":2,"ndvi":-0.11977040766262008}},{"type":"Feature","geometry":{"type":"Polygon","coordinates":[[[-105.2,39.9],[-105.15,39.9],[-105.15,39.949999999999996],[-105.2,39.949999999999996],[-105.2,39.9]]]},"properties":{"id":"r007c007","pca_color":"#8baeb1","cluster":2,"ndvi":0.028915166938172226}},{"type":"Feature","geometry":{"type":"Polygon","coordinates":[[[-105.15,39.9],[-105.1,39.9],[-105.1,39.949999999999996],[-105.15,39.949999999999996],[-105.15,39.9]]]},"properties":{"id":"r007c008","pca_color":"#90e899","cluster":3,"ndvi":0.035801386838220595}},{"type":"Feature","geometry":{"type":"Polygon","coordinates":[[[-105.1,39.9],[-105.05,39.9],[-105.05,39.949999999999996],[-105.1,39.949999999999996],[-105.1,39.9]]]},"properties":{"id":"r007c009","pca_color":"#99eda5","cluster":3,"ndvi":0.17293156392310344}},{"type":"Feature","geometry":{"type":"Polygon","coordinates":[[[-105.05,39.9],[-105,39.9],[-105,39.949999999999996],[-105.05,39.949999999999996],[-105.05,39.9]]]},"properties":{"id":"r007c010","pca_color":"#b06c8d","cluster":4,"ndvi":0.2683412552198121}},{"type":"Feature","geometry":{"type":"Polygon","coordinates":[[[-105,39.9],[-104.95,39.9],[-104.95,39.949999999999996],[-105,39.949999999999996],[-105,39.9]]]},"properties":{"id":"r007c011","pca_color":"#aa6583","cluster":4,"ndvi":0.21993622780774535}},{"type":"Feature","geometry":{"type":"Polygon","coordinates":[[[-104.95,39.9],[-104.9,39.9],[-104.9,39.949999999999996],[-104.95,39.949999999999996],[-104.95,39.9]]]},"properties":{"id":"r007c012","pca_color":"#c5946f","cluster":5,"ndvi":0.5520602703918983}},{"type":"Feature","geometry":{"type":"Polygon","coordinates":[[[-104.9,39.9],[-104.85,39.9],[-104.85,39.949999999999996],[-104.9,39.949999999999996],[-104.9,39.9]]]},"properties":{"id":"r007c013","pca_color":"#c49381","cluster":5,"ndvi":0.4531575203305844}},{"type":"Feature","geometry":{"type":"Polygon","coordinates":[[[-104.85,39.9],[-104.8,39.9],[-104.8,39.949999999999996],[-104.85,39.949999999999996],[-104.85,39.9]]]},"properties":{"id":"r007c014","pca_color":"#cfd56f","cluster":6,"ndvi":0.5703586101626783}},{"type":"Feature","geometry":{"type":"Polygon","coordinates":[[[-104.8,39.9],[-104.75,39.9],[-104.75,39.949999999999996],[-104.8,39.949999999999996],[-104.8,39.9]]]},"properties":{"id":"r007c015","pca_color":"#d6c96e","cluster":6,"ndvi":0.5651111602853568}},{"type":"Feature","geometry":{"type":"Polygon","coordinates":[[[-105.55,39.949999999999996],[-105.5,39.949999999999996],[-105.5,40],[-105.55,40],[-105.55,39.949999999999996]]]},"properties":{"id":"r008c000","pca_color":"#5b46ca","cluster":0,"ndvi":-0.43277599808423595}},{"type":"Feature","geometry":{"type":"Polygon","coordinates":[[[-105.5,39.949999999999996],[-105.45,39.949999999999996],[-105.45,40],[-105.5,40],[-105.5,39.949999999999996]]]},"properties":{"id":"r008c001","pca_color":"#5b40c9","cluster":0,"ndvi":-0.4423094272344883}},{"type":"Feature","geometry":{"type":"Polygon","coordinates":[[[-105.45,39.949999999999996],[-105.39999999999999,39.949999999999996],[-105.39999999999999,40],[-105.45,40],[-105.45,39.949999999999996]]]},"properties":{"id":"r008c002","pca_color":"#7874ca","cluster":1,"ndvi":-0.26309732857071677}},{"type":"Feature","geometry":{"type":"Polygon","coordinates":[[[-105.39999999999999,39.949999999999996],[-105.35,39.949999999999996],[-105.35,40],[-105.39999999999999,40],[-105.39999999999999,39.949999999999996]]]},"properties":{"id":"r008c003","pca_color":"#6b78c3","cluster":1,"ndvi":-0.16774789683648755}},{"type":"Feature","geometry":{"type":"Polygon","coordinates":[[[-105.35,39.949999999999996],[-105.3,39.949999999999996],[-105.3,40],[-105.35,40],[-105.35,39.949999999999996]]]},"properties":{"id":"r008c004","pca_color":"#84afb0","cluster":2,"ndvi":-0.05624516005918628}},{"type":"Feature","geometry":{"type":"Polygon","coordinates":[[[-105.3,39.949999999999996],[-105.25,39.949999999999996],[-105.25,40],[-105.3,40],[-105.3,39.949999999999996]]]},"properties":{"id":"r008c005","pca_color":"#83b7b7","cluster":2,"ndvi":-0.05394487376508535}},{"type":"Feature","geometry":{"type":"Polygon","coordinates":[[[-105.25,39.949999999999996],[-105.2,39.949999999999996],[-105.2,40],[-105.25,40],[-105.25,39.949999999999996]]]},"properties":{"id":"r008c006","pca_color":"#90eda0","cluster":3,"ndvi":0.1392253637845745}},{"type":"Feature","geometry":{"type":"Polygon","coordinates":[[[-105.2,39.949999999999996],[-105.15,39.949999999999996],[-105.15,40],[-105.2,40],[-105.2,39.949999999999996]]]},"properties":{"id":"r008c007","pca_color":"#90e59b","cluster":3,"ndvi":0.21576161393465537}},{"type":"Feature","geometry":{"type":"Polygon","coordinates":[[[-105.15,39.949999999999996],[-105.1,39.949999999999996],[-105.1,40],[-105.15,40],[-105.15,39.949999999999996]]]},"properties":{"id":"r008c008","pca_color":"#af6f8e","cluster":4,"ndvi":0.39356522569133207}},{"type":"Feature","geometry":{"type":"Polygon","coordinates":[[[-105.1,39.949999999999996],[-105.05,39.949999999999996],[-105.05,40],[-105.1,40],[-105.1,39.949999999999996]]]},"properties":{"id":"r008c009","pca_color":"#a56c8b","cluster":4,"ndvi":0.33276379114611243}},{"type":"Feature","geometry":{"type":"Polygon","coordinates":[[[-105.05,39.949999999999996],[-105,39.949999999999996],[-105,40],[-105.05,40],[-105.05,39.949999999999996]]]},"properties":{"id":"r008c010","pca_color":"#c7a580","cluster":5,"ndvi":0.4325903654366686}},{"type":"Feature","geometry":{"type":"Polygon","coordinates":[[[-105,39.949999999999996],[-104.95,39.949999999999996],[-104.95,40],[-105,40],[-105,39.949999999999996]]]},"properties":{"id":"r008c011","pca_color":"#b7a280","cluster":5,"ndvi":0.5729083300558423}},{"type":"Feature","geometry":{"type":"Polygon","coordinates":[[[-104.95,39.949999999999996],[-104.9,39.949999999999996],[-104.9,40],[-104.95,40],[-104.95,39.949999999999996]]]},"properties":{"id":"r008c012","pca_color":"#c9d86c","cluster":6,"ndvi":0.6570867538950808}},{"type":"Feature","geometry":{"type":"Polygon","coordinates":[[[-104.9,39.949999999999996],[-104.85,39.949999999999996],[-104.85,40],[-104.9,40],[-104.9,39.949999999999996]]]},"properties":{"id":"r008c013","pca_color":"#d0d467","cluster":6,"ndvi":0.7311702013859385}},{"type":"Feature","geometry":{"type":"Polygon","coordinates":[[[-104.85,39.949999999999996],[-104.8,39.949999999999996],[-104.8,40],[-104.85,40],[-104.85,39.949999999999996]]]},"properties":{"id":"r008c014","pca_color":"#ed5a4f","cluster":7,"ndvi":0.7508242130399793}},{"type":"Feature","geometry":{"type":"Polygon","coordinates":[[[-104.8,39.949999999999996],[-104.75,39.949999999999996],[-104.75,40],[-104.8,40],[-104.8,39.949999999999996]]]},"properties":{"id":"r008c015","pca_color":"#df5a57","cluster":7,"ndvi":0.8701857627114213}},{"type":"Feature","geometry":{"type":"Polygon","coordinates":[[[-105.55,40],[-105.5,40],[-105.5,40.05],[-105.55,40.05],[-105.55,40]]]},"properties":{"id":"r009c000","pca_color":"#6682be","cluster":1,"ndvi":-0.21916947359879013}},{"type":"Feature","geometry":{"type":"Polygon","coordinates":[[[-105.5,40],[-105.45,40],[-105.45,40.05],[-105.5,40.05],[-105.5,40]]]},"properties":{"id":"r009c001","pca_color":"#7175c9","cluster":1,"ndvi":-0.2725189923995729}},{"type":"Feature","geometry":{"type":"Polygon","coordinates":[[[-105.45,40],[-105.39999999999999,40],[-105.39999999999999,40.05],[-105.45,40.05],[-105.45,40]]]},"properties":{"id":"r009c002","pca_color":"#80b9b1","cluster":2,"ndvi":-0.016445898947513644}},{"type":"Feature","geometry":{"type":"Polygon","coordinates":[[[-105.39999999999999,40],[-105.35,40],[-105.35,40.05],[-105.39999999999999,40.05],[-105.39999999999999,40]]]},"properties":{"id":"r009c003","pca_color":"#8bb4b6","cluster":2,"ndvi":-0.01782455438181043}},{"type":"Feature","geometry":{"type":"Polygon","coordinates":[[[-105.35,40],[-105.3,40],[-105.3,40.05],[-105.35,40.05],[-105.35,40]]]},"properties":{"id":"r009c004","pca_color":"#93ef9f","cluster":3,"ndvi":0.16323115832089957}},{"type":"Feature","geometry":{"type":"Polygon","coordinates":[[[-105.3,40],[-105.25,40],[-105.25,40.05],[-105.3,40.05],[-105.3,40]]]},"properties":{"id":"r009c005","pca_color":"#97e196","cluster":3,"ndvi":0.22173677095991398}},{"type":"Feature","geometry":{"type":"Polygon","coordinates":[[[-105.25,40],[-105.2,40],[-105.2,40.05],[-105.25,40.05],[-105.25,40]]]},"properties":{"id":"r009c006","pca_color":"#a66d91","cluster":4,"ndvi":0.35481090552863237}},{"type":"Feature","geometry":{"type":"Polygon","coordinates":[[[-105.2,40],[-105.15,40],[-105.15,40.05],[-105.2,40.05],[-105.2,40]]]},"properties":{"id":"r009c007","pca_color":"#a5618e","cluster":4,"ndvi":0.2730451584202447}},{"type":"Feature","geometry":{"type":"Polygon","coordinates":[[[-105.15,40],[-105.1,40],[-105.1,40.05],[-105.15,40.05],[-105.15,40]]]},"properties":{"id":"r009c008","pca_color":"#bda082","cluster":5,"ndvi":0.4580219507604008}},{"type":"Feature","geometry":{"type":"Polygon","coordinates":[[[-105.1,40],[-105.05,40],[-105.05,40.05],[-105.1,40.05],[-105.1,40]]]},"properties":{"id":"r009c009","pca_color":"#b6a170","cluster":5,"ndvi":0.38686481118754706}},{"type":"Feature","geometry":{"type":"Polygon","coordinates":[[[-105.05,40],[-105,40],[-105,40.05],[-105.05,40.05],[-105.05,40]]]},"properties":{"id":"r009c010","pca_color":"#d3d76c","cluster":6,"ndvi":0.5940695584025556}},{"type":"Feature","geometry":{"type":"Polygon","coordinates":[[[-105,40],[-104.95,40],[-104.95,40.05],[-105,40.05],[-105,40]]]},"properties":{"id":"r009c011","pca_color":"#d9c970","cluster":6,"ndvi":0.6630355418254785}},{"type":"Feature","geometry":{"type":"Polygon","coordinates":[[[-104.95,40],[-104.9,40],[-104.9,40.05],[-104.95,40.05],[-104.95,40]]]},"properties":{"id":"r009c012","pca_color":"#e35b5e","cluster":7,"ndvi":0.8027353287105146}},{"type":"Feature","geometry":{"type":"Polygon","coordinates":[[[-104.9,40],[-104.85,40],[-104.85,40.05],[-104.9,40.05],[-104.9,40]]]},"properties":{"id":"r009c013","pca_color":"#df5857","cluster":7,"ndvi":0.8362044811766614}},{"type":"Feature","geometry":{"type":"Polygon","coordinates":[[[-104.85,40],[-104.8,40],[-104.8,40.05],[-104.85,40.05],[-104.85,40]]]},"properties":{"id":"r009c014","pca_color":"#5144ca","cluster":0,"ndvi":-0.4809889763505147}},{"type":"Feature","geometry":{"type":"Polygon","coordinates":[[[-104.8,40],[-104.75,40],[-104.75,40.05],[-104.8,40.05],[-104.8,40]]]},"properties":{"id":"r009c015","pca_color":"#5450ca","cluster":0,"ndvi":-0.49247133731491466}},{"type":"Feature","geometry":{"type":"Polygon","coordinates":[[[-105.55,40.05],[-105.5,40.05],[-105.5,40.1],[-105.55,40.1],[-105.55,40.05]]]},"properties":{"id":"r010c000","pca_color":"#80a9b5","cluster":2,"ndvi":-0.1387903213448778}},{"type":"Feature","geometry":{"type":"Polygon","coordinates":[[[-105.5,40.05],[-105.45,40.05],[-105.45,40.1],[-105.5,40.1],[-105.5,40.05]]]},"properties":{"id":"r010c001","pca_color":"#79a9b6","cluster":2,"ndvi":-0.07487967010814686}},{"type":"Feature","geometry":{"type":"Polygon","coordinates":[[[-105.45,40.05],[-105.39999999999999,40.05],[-105.39999999999999,40.1],[-105.45,40.1],[-105.45,40.05]]]},"properties":{"id":"r010c002","pca_color":"#9ddb94","cluster":3,"ndvi":0.03913855553331706}},{"type":"Feature","geometry":{"type":"Polygon","coordinates":[[[-105.39999999999999,40.05],[-105.35,40.05],[-105.35,40.1],[-105.39999999999999,40.1],[-105.39999999999999,40.05]]]},"properties":{"id":"r010c003","pca_color":"#96eba0","cluster":3,"ndvi":0.06955604555297448}},{"type":"Feature","geometry":{"type":"Polygon","coordinates":[[[-105.35,40.05],[-105.3,40.05],[-105.3,40.1],[-105.35,40.1],[-105.35,40.05]]]},"properties":{"id":"r010c004","pca_color":"#a86790","cluster":4,"ndvi":0.27881450656746254}},{"type":"Feature","geometry":{"type":"Polygon","coordinates":[[[-105.3,40.05],[-105.25,40.05],[-105.25,40.1],[-105.3,40.1],[-105.3,40.05]]]},"properties":{"id":"r010c005","pca_color":"#a26287","cluster":4,"ndvi":0.3368192732971251}},{"type":"Feature","geometry":{"type":"Polygon","coordinates":[[[-105.25,40.05],[-105.2,40.05],[-105.2,40.1],[-105.25,40.1],[-105.25,40.05]]]},"properties":{"id":"r010c006","pca_color":"#b59582","cluster":5,"ndvi":0.48388574128452955}},{"type":"Feature","geometry":{"type":"Polygon","coordinates":[[[-105.2,40.05],[-105.15,40.05],[-105.15,40.1],[-105.2,40.1],[-105.2,40.05]]]},"properties":{"id":"r010c007","pca_color":"#c59473","cluster":5,"ndvi":0.5273693085426322}},{"type":"Feature","geometry":{"type":"Polygon","coordinates":[[[-105.15,40.05],[-105.1,40.05],[-105.1,40.1],[-105.15,40.1],[-105.15,40.05]]]},"properties":{"id":"r010c008","pca_color":"#d0c965","cluster":6,"ndvi":0.6476012289978568}},{"type":"Feature","geometry":{"type":"Polygon","coordinates":[[[-105.1,40.05],[-105.05,40.05],[-105.05,40.1],[-105.1,40.1],[-105.1,40.05]]]},"properties":{"id":"r010c009","pca_color":"#d1cc66","cluster":6,"ndvi":0.652247285890508}},{"type":"Feature","geometry":{"type":"Polygon","coordinates":[[[-105.05,40.05],[-105,40.05],[-105,40.1],[-105.05,40.1],[-105.05,40.05]]]},"properties":{"id":"r010c010","pca_color":"#e2534b","cluster":7,"ndvi":0.7781295299777431}},{"type":"Feature","geometry":{"type":"Polygon","coordinates":[[[-105,40.05],[-104.95,40.05],[-104.95,40.1],[-105,40.1],[-105,40.05]]]},"properties":{"id":"r010c011","pca_color":"#ec574a","cluster":7,"ndvi":0.8320476770899479}},{"type":"Feature","geometry":{"type":"Polygon","coordinates":[[[-104.95,40.05],[-104.9,40.05],[-104.9,40.1],[-104.95,40.1],[-104.95,40.05]]]},"properties":{"id":"r010c012","pca_color":"#6348cd","cluster":0,"ndvi":-0.4744900464892807}},{"type":"Feature","geometry":{"type":"Polygon","coordinates":[[[-104.9,40.05],[-104.85,40.05],[-104.85,40.1],[-104.9,40.1],[-104.9,40.05]]]},"properties":{"id":"r010c013","pca_color":"#5d4cd1","cluster":0,"ndvi":-0.47579846381014146}},{"type":"Feature","geometry":{"type":"Polygon","coordinates":[[[-104.85,40.05],[-104.8,40.05],[-104.8,40.1],[-104.85,40.1],[-104.85,40.05]]]},"properties":{"id":"r010c014","pca_color":"#6e74bc","cluster":1,"ndvi":-0.17109198563084568}},{"type":"Feature","geometry":{"type":"Polygon","coordinates":[[[-104.8,40.05],[-104.75,40.05],[-104.75,40.1],[-104.8,40.1],[-104.8,40.05]]]},"properties":{"id":"r010c015","pca_color":"#677dbb","cluster":1,"ndvi":-0.12934810510107697}},{"type":"Feature","geometry":{"type":"Polygon","coordinates":[[[-105.55,40.1],[-105.5,40.1],[-105.5,40.15],[-105.55,40.15],[-105.55,40.1]]]},"properties":{"id":"r011c000","pca_color":"#9aeda2","cluster":3,"ndvi":0.0845709085741875}},{"type":"Feature","geometry":{"type":"Polygon","coordinates":[[[-105.5,40.1],[-105.45,40.1],[-105.45,40.15],[-105.5,40.15],[-105.5,40.1]]]},"properties":{"id":"r011c001","pca_color":"#9cdc9a","cluster":3,"ndvi":0.03626964092779411}},{"type":"Feature","geometry":{"type":"Polygon","coordinates":[[[-105.45,40.1],[-105.39999999999999,40.1],[-105.39999999999999,40.15],[-105.45,40.15],[-105.45,40.1]]]},"properties":{"id":"r011c002","pca_color":"#ad6b82","cluster":4,"ndvi":0.3634957075880354}},{"type":"Feature","geometry":{"type":"Polygon","coordinates":[[[-105.39999999999999,40.1],[-105.35,40.1],[-105.35,40.15],[-105.39999999999999,40.15],[-105.39999999999999,40.1]]]},"properties":{"id":"r011c003","pca_color":"#ae6388","cluster":4,"ndvi":0.35703129775683917}},{"type":"Feature","geometry":{"type":"Polygon","coordinates":[[[-105.35,40.1],[-105.3,40.1],[-105.3,40.15],[-105.35,40.15],[-105.35,40.1]]]},"properties":{"id":"r011c004","pca_color":"#c29875","cluster":5,"ndvi":0.5038585663441841}},{"type":"Feature","geometry":{"type":"Polygon","coordinates":[[[-105.3,40.1],[-105.25,40.1],[-105.25,40.15],[-105.3,40.15],[-105.3,40.1]]]},"properties":{"id":"r011c005","pca_color":"#bc9e77","cluster":5,"ndvi":0.4998935513779956}},{"type":"Feature","geometry":{"type":"Polygon","coordinates":[[[-105.25,40.1],[-105.2,40.1],[-105.2,40.15],[-105.25,40.15],[-105.25,40.1]]]},"properties":{"id":"r011c006","pca_color":"#c8d96a","cluster":6,"ndvi":0.5899041414446681}},{"type":"Feature","geometry":{"type":"Polygon","coordinates":[[[-105.2,40.1],[-105.15,40.1],[-105.15,40.15],[-105.2,40.15],[-105.2,40.1]]]},"properties":{"id":"r011c007","pca_color":"#ced96f","cluster":6,"ndvi":0.6918544769947669}},{"type":"Feature","geometry":{"type":"Polygon","coordinates":[[[-105.15,40.1],[-105.1,40.1],[-105.1,40.15],[-105.15,40.15],[-105.15,40.1]]]},"properties":{"id":"r011c008","pca_color":"#dd594d","cluster":7,"ndvi":0.7309711515931276}},{"type":"Feature","geometry":{"type":"Polygon","coordinates":[[[-105.1,40.1],[-105.05,40.1],[-105.05,40.15],[-105.1,40.15],[-105.1,40.1]]]},"properties":{"id":"r011c009","pca_color":"#ee534f","cluster":7,"ndvi":0.8307148516670403}},{"type":"Feature","geometry":{"type":"Polygon","coordinates":[[[-105.05,40.1],[-105,40.1],[-105,40.15],[-105.05,40.15],[-105.05,40.1]]]},"properties":{"id":"r011c010","pca_color":"#524bd0","cluster":0,"ndvi":-0.4355277776417918}},{"type":"Feature","geometry":{"type":"Polygon","coordinates":[[[-105,40.1],[-104.95,40.1],[-104.95,40.15],[-105,40.15],[-105,40.1]]]},"properties":{"id":"r011c011","pca_color":"#5e43d1","cluster":0,"ndvi":-0.3957823037615895}},{"type":"Feature","geometry":{"type":"Polygon","coordinates":[[[-104.95,40.1],[-104.9,40.1],[-104.9,40.15],[-104.95,40.15],[-104.95,40.1]]]},"properties":{"id":"r011c012","pca_color":"#707ac9","cluster":1,"ndvi":-0.31036040186200314}},{"type":"Feature","geometry":{"type":"Polygon","coordinates":[[[-104.9,40.1],[-104.85,40.1],[-104.85,40.15],[-104.9,40.15],[-104.9,40.1]]]},"properties":{"id":"r011c013","pca_color":"#7081ba","cluster":1,"ndvi":-0.26254086491537326}},{"type":"Feature","geometry":{"type":"Polygon","coordinates":[[[-104.85,40.1],[-104.8,40.1],[-104.8,40.15],[-104.85,40.15],[-104.85,40.1]]]},"properties":{"id":"r011c014","pca_color":"#81b5a9","cluster":2,"ndvi":0.007719326092730849}},{"type":"Feature","geometry":{"type":"Polygon","coordinates":[[[-104.8,40.1],[-104.75,40.1],[-104.75,40.15],[-104.8,40.15],[-104.8,40.1]]]},"properties":{"id":"r011c015","pca_color":"#8aadaf","cluster":2,"ndvi":-0.10998461244627122}},{"type":"Feature","geometry":{"type":"Polygon","coordinates":[[[-105.55,40.15],[-105.5,40.15],[-105.5,40.2],[-105.55,40.2],[-105.55,40.15]]]},"properties":{"id":"r012c000","pca_color":"#a66581","cluster":4,"ndvi":0.2800629616156513}},{"type":"Feature","geometry":{"type":"Polygon","coordinates":[[[-105.5,40.15],[-105.45,40.15],[-105.45,40.2],[-105.5,40.2],[-105.5,40.15]]]},"properties":{"id":"r012c001","pca_color":"#a46684","cluster":4,"ndvi":0.31892733579451554}},{"type":"Feature","geometry":{"type":"Polygon","coordinates":[[[-105.45,40.15],[-105.39999999999999,40.15],[-105.39999999999999,40.2],[-105.45,40.2],[-105.45,40.15]]]},"properties":{"id":"r012c002","pca_color":"#b6a37d","cluster":5,"ndvi":0.46295266155523834}},{"type":"Feature","geometry":{"type":"Polygon","coordinates":[[[-105.39999999999999,40.15],[-105.35,40.15],[-105.35,40.2],[-105.39999999999999,40.2],[-105.39999999999999,40.15]]]},"properties":{"id":"r012c003","pca_color":"#bf9677","cluster":5,"ndvi":0.48844497209109594}},{"type":"Feature","geometry":{"type":"Polygon","coordinates":[[[-105.35,40.15],[-105.3,40.15],[-105.3,40.2],[-105.35,40.2],[-105.35,40.15]]]},"properties":{"id":"r012c004","pca_color":"#d7d569","cluster":6,"ndvi":0.6944617987351778}},{"type":"Feature","geometry":{"type":"Polygon","coordinates":[[[-105.3,40.15],[-105.25,40.15],[-105.25,40.2],[-105.3,40.2],[-105.3,40.15]]]},"properties":{"id":"r012c005","pca_color":"#ccd465","cluster":6,"ndvi":0.7465306521377202}},{"type":"Feature","geometry":{"type":"Polygon","coordinates":[[[-105.25,40.15],[-105.2,40.15],[-105.2,40.2],[-105.25,40.2],[-105.25,40.15]]]},"properties":{"id":"r012c006","pca_color":"#eb5a4e","cluster":7,"ndvi":0.9137822211667811}},{"type":"Feature","geometry":{"type":"Polygon","coordinates":[[[-105.2,40.15],[-105.15,40.15],[-105.15,40.2],[-105.2,40.2],[-105.2,40.15]]]},"properties":{"id":"r012c007","pca_color":"#e0535e","cluster":7,"ndvi":0.9209513903576653}},{"type":"Feature","geometry":{"type":"Polygon","coordinates":[[[-105.15,40.15],[-105.1,40.15],[-105.1,40.2],[-105.15,40.2],[-105.15,40.15]]]},"properties":{"id":"r012c008","pca_color":"#5e40d0","cluster":0,"ndvi":-0.31326918593294417}},{"type":"Feature","geometry":{"type":"Polygon","coordinates":[[[-105.1,40.15],[-105.05,40.15],[-105.05,40.2],[-105.1,40.2],[-105.1,40.15]]]},"properties":{"id":"r012c009","pca_color":"#5c50cf","cluster":0,"ndvi":-0.32689564219997064}},{"type":"Feature","geometry":{"type":"Polygon","coordinates":[[[-105.05,40.15],[-105,40.15],[-105,40.2],[-105.05,40.2],[-105.05,40.15]]]},"properties":{"id":"r012c010","pca_color":"#707cc3","cluster":1,"ndvi":-0.1858613192387211}},{"type":"Feature","geometry":{"type":"Polygon","coordinates":[[[-105,40.15],[-104.95,40.15],[-104.95,40.2],[-105,40.2],[-105,40.15]]]},"properties":{"id":"r012c011","pca_color":"#787cb7","cluster":1,"ndvi":-0.23515339489567721}},{"type":"Feature","geometry":{"type":"Polygon","coordinates":[[[-104.95,40.15],[-104.9,40.15],[-104.9,40.2],[-104.95,40.2],[-104.95,40.15]]]},"properties":{"id":"r012c012","pca_color":"#89b9a6","cluster":2,"ndvi":-0.008424828880664377}},{"type":"Feature","geometry":{"type":"Polygon","coordinates":[[[-104.9,40.15],[-104.85,40.15],[-104.85,40.2],[-104.9,40.2],[-104.9,40.15]]]},"properties":{"id":"r012c013","pca_color":"#8cb4ab","cluster":2,"ndvi":0.03602432021220413}},{"type":"Feature","geometry":{"type":"Polygon","coordinates":[[[-104.85,40.15],[-104.8,40.15],[-104.8,40.2],[-104.85,40.2],[-104.85,40.15]]]},"properties":{"id":"r012c014","pca_color":"#97ed9a","cluster":3,"ndvi":0.02755246162533398}},{"type":"Feature","geometry":{"type":"Polygon","coordinates":[[[-104.8,40.15],[-104.75,40.15],[-104.75,40.2],[-104.8,40.2],[-104.8,40.15]]]},"properties":{"id":"r012c015","pca_color":"#8fe694","cluster":3,"ndvi":0.10173571113345002}},{"type":"Feature","geometry":{"type":"Polygon","coordinates":[[[-105.55,40.2],[-105.5,40.2],[-105.5,40.25],[-105.55,40.25],[-105.55,40.2]]]},"properties":{"id":"r013c000","pca_color":"#b7a480","cluster":5,"ndvi":0.3818518638642746}},{"type":"Feature","geometry":{"type":"Polygon","coordinates":[[[-105.5,40.2],[-105.45,40.2],[-105.45,40.25],[-105.5,40.25],[-105.5,40.2]]]},"properties":{"id":"r013c001","pca_color":"#b4977f","cluster":5,"ndvi":0.4798734307777478}},{"type":"Feature","geometry":{"type":"Polygon","coordinates":[[[-105.45,40.2],[-105.39999999999999,40.2],[-105.39999999999999,40.25],[-105.45,40.25],[-105.45,40.2]]]},"properties":{"id":"r013c002","pca_color":"#cdc965","cluster":6,"ndvi":0.5683660805310894}},{"type":"Feature","geometry":{"type":"Polygon","coordinates":[[[-105.39999999999999,40.2],[-105.35,40.2],[-105.35,40.25],[-105.39999999999999,40.25],[-105.39999999999999,40.2]]]},"properties":{"id":"r013c003","pca_color":"#cdc96e","cluster":6,"ndvi":0.7355728925138584}},{"type":"Feature","geometry":{"type":"Polygon","coordinates":[[[-105.35,40.2],[-105.3,40.2],[-105.3,40.25],[-105.35,40.25],[-105.35,40.2]]]},"properties":{"id":"r013c004","pca_color":"#ec475a","cluster":7,"ndvi":0.8123095088113608}},{"type":"Feature","geometry":{"type":"Polygon","coordinates":[[[-105.3,40.2],[-105.25,40.2],[-105.25,40.25],[-105.3,40.25],[-105.3,40.2]]]},"properties":{"id":"r013c005","pca_color":"#dc5552","cluster":7,"ndvi":0.8453347981536455}},{"type":"Feature","geometry":{"type":"Polygon","coordinates":[[[-105.25,40.2],[-105.2,40.2],[-105.2,40.25],[-105.25,40.25],[-105.25,40.2]]]},"properties":{"id":"r013c006","pca_color":"#5448d0","cluster":0,"ndvi":-0.47822890280663455}},{"type":"Feature","geometry":{"type":"Polygon","coordinates":[[[-105.2,40.2],[-105.15,40.2],[-105.15,40.25],[-105.2,40.25],[-105.2,40.2]]]},"properties":{"id":"r013c007","pca_color":"#5e4fd2","cluster":0,"ndvi":-0.4440969466902767}},{"type":"Feature","geometry":{"type":"Polygon","coordinates":[[[-105.15,40.2],[-105.1,40.2],[-105.1,40.25],[-105.15,40.25],[-105.15,40.2]]]},"properties":{"id":"r013c008","pca_color":"#6874bf","cluster":1,"ndvi":-0.3032680988210571}},{"type":"Feature","geometry":{"type":"Polygon","coordinates":[[[-105.1,40.2],[-105.05,40.2],[-105.05,40.25],[-105.1,40.25],[-105.1,40.2]]]},"properties":{"id":"r013c009","pca_color":"#6871c1","cluster":1,"ndvi":-0.14978280059284665}},{"type":"Feature","geometry":{"type":"Polygon","coordinates":[[[-105.05,40.2],[-105,40.2],[-105,40.25],[-105.05,40.25],[-105.05,40.2]]]},"properties":{"id":"r013c010","pca_color":"#85abb0","cluster":2,"ndvi":-0.09326632020215803}},{"type":"Feature","geometry":{"type":"Polygon","coordinates":[[[-105,40.2],[-104.95,40.2],[-104.95,40.25],[-105,40.25],[-105,40.2]]]},"properties":{"id":"r013c011","pca_color":"#81b5af","cluster":2,"ndvi":0.023648929676808803}},{"type":"Feature","geometry":{"type":"Polygon","coordinates":[[[-104.95,40.2],[-104.9,40.2],[-104.9,40.25],[-104.95,40.25],[-104.95,40.2]]]},"properties":{"id":"r013c012","pca_color":"#99e497","cluster":3,"ndvi":0.19610705979685616}},{"type":"Feature","geometry":{"type":"Polygon","coordinates":[[[-104.9,40.2],[-104.85,40.2],[-104.85,40.25],[-104.9,40.25],[-104.9,40.2]]]},"properties":{"id":"r013c013","pca_color":"#94de9d","cluster":3,"ndvi":0.1992153406954441}},{"type":"Feature","geometry":{"type":"Polygon","coordinates":[[[-104.85,40.2],[-104.8,40.2],[-104.8,40.25],[-104.85,40.25],[-104.85,40.2]]]},"properties":{"id":"r013c014","pca_color":"#b16f83","cluster":4,"ndvi":0.20386230945767003}},{"type":"Feature","geometry":{"type":"Polygon","coordinates":[[[-104.8,40.2],[-104.75,40.2],[-104.75,40.25],[-104.8,40.25],[-104.8,40.2]]]},"properties":{"id":"r013c015","pca_color":"#b05e8f","cluster":4,"ndvi":0.36968097694668955}}]}